NORAD_CAT_ID,OBJECT_NAME,OBJECT_TYPE,EPOCH,MEAN_MOTION,ECCENTRICITY,INCLINATION,RA_OF_ASC_NODE,ARG_OF_PERICENTER,MEAN_ANOMALY,BSTAR,MEAN_MOTION_DOT,MEAN_MOTION_DDOT,TLE_LINE0,TLE_LINE1,TLE_LINE2,SEMIMAJOR_AXIS,PERIOD,APOGEE,PERIGEE,DECAYED
55269.0,STARLINK-5277,PAYLOAD,2024-07-28 01:32:14,14.98384266,0.0003414,69.9993,91.1965,264.0696,96.0074,-0.0011214,-0.00013467,0.0,0 STARLINK-5277,1 55269U 23010A   24210.06405178 -.00013467  00000-0 -11214-2 0  9997,2 55269  69.9993  91.1965 0003414 264.0696  96.0074 14.98384266 84155,6950.025,96.104,574.263,569.517,0.0
55269.0,STARLINK-5277,PAYLOAD,2024-07-28 09:32:55,14.98327233,0.0003006,69.9995,90.354,272.0487,88.0328,-7.8196e-05,-1.026e-05,0.0,0 STARLINK-5277,1 55269U 23010A   24210.39786804 -.00001026  00000-0 -78196-4 0  9993,2 55269  69.9995  90.3540 0003006 272.0487  88.0328 14.98327233 84201,6950.201,96.107,574.156,569.977,0.0
55269.0,STARLINK-5277,PAYLOAD,2024-07-28 22:22:00,14.98329207,0.000313,69.9992,89.0072,271.6435,88.4365,-1.175e-05,-2.33e-06,0.0,0 STARLINK-5277,1 55269U 23010A   24210.93194575 -.00000233  00000-0 -11750-4 0  9993,2 55269  69.9992  89.0072 0003130 271.6435  88.4365 14.98329207 84870,6950.195,96.107,574.236,569.885,0.0
55269.0,STARLINK-5277,PAYLOAD,2024-07-29 01:34:15,14.98332681,0.0003056,69.9995,88.671,272.3718,87.7091,2.4857e-05,2.04e-06,0.0,0 STARLINK-5277,1 55269U 23010A   24211.06546255  .00000204  00000-0  24857-4 0  9992,2 55269  69.9995  88.6710 0003056 272.3718  87.7091 14.98332681 84302,6950.185,96.107,574.174,569.926,0.0
55269.0,STARLINK-5277,PAYLOAD,2024-07-29 14:23:20,14.98329197,0.0003096,69.9992,87.3244,271.7207,88.3598,0.00014281,1.611e-05,0.0,0 STARLINK-5277,1 55269U 23010A   24211.59954073  .00001611  00000-0  14281-3 0  9993,2 55269  69.9992  87.3244 0003096 271.7207  88.3598 14.98329197 84977,6950.195,96.107,574.212,569.909,0.0
55269.0,STARLINK-5277,PAYLOAD,2024-07-29 22:24:00,14.98334363,0.0003098,69.9992,86.4826,271.184,88.8964,0.00018637,2.132e-05,0.0,0 STARLINK-5277,1 55269U 23010A   24211.93333628  .00002132  00000-0  18637-3 0  9996,2 55269  69.9992  86.4826 0003098 271.1840  88.8964 14.98334363 85022,6950.179,96.107,574.198,569.891,0.0
55269.0,STARLINK-5277,PAYLOAD,2024-07-30 01:36:16,14.98337048,0.0003063,69.9992,86.1458,271.1611,88.9197,0.00021141,2.431e-05,0.0,0 STARLINK-5277,1 55269U 23010A   24212.06685371  .00002431  00000-0  21141-3 0  9992,2 55269  69.9992  86.1458 0003063 271.1611  88.9197 14.98337048 84456,6950.171,96.107,574.165,569.907,0.0
55269.0,STARLINK-5277,PAYLOAD,2024-07-30 09:36:57,14.98330661,0.000308,69.9992,85.3039,271.3768,88.7038,9.4805e-05,1.038e-05,0.0,0 STARLINK-5277,1 55269U 23010A   24212.40065978  .00001038  00000-0  94805-4 0  9995,2 55269  69.9992  85.3039 0003080 271.3768  88.7038 14.98330661 84508,6950.191,96.107,574.197,569.915,0.0
55269.0,STARLINK-5277,PAYLOAD,2024-07-30 22:26:01,14.98332895,0.0002879,69.9995,83.957,270.1068,89.9761,4.0393e-05,3.89e-06,0.0,0 STARLINK-5277,1 55269U 23010A   24212.93473962  .00000389  00000-0  40393-4 0  9990,2 55269  69.9995  83.9570 0002879 270.1068  89.9761 14.98332895 85171,6950.184,96.107,574.05,570.048,0.0
55269.0,STARLINK-5277,PAYLOAD,2024-07-31 14:27:22,14.98325609,0.0003031,70.0005,82.2745,272.7885,87.2927,-4.1313e-05,-5.86e-06,0.0,0 STARLINK-5277,1 55269U 23010A   24213.60234576 -.00000586  00000-0 -41313-4 0  9995,2 55269  70.0005  82.2745 0003031 272.7885  87.2927 14.98325609 85279,6950.206,96.107,574.178,569.965,0.0
55269.0,STARLINK-5277,PAYLOAD,2024-07-31 22:28:03,14.98327176,0.0003196,70.0001,81.4329,278.136,81.9436,-6.958e-05,-9.23e-06,0.0,0 STARLINK-5277,1 55269U 23010A   24213.93614623 -.00000923  00000-0 -69580-4 0  9997,2 55269  70.0001  81.4329 0003196 278.1360  81.9436 14.98327176 85327,6950.202,96.107,574.288,569.845,0.0
55269.0,STARLINK-5277,PAYLOAD,2024-08-01 01:40:18,14.98330594,0.0003225,70.0,81.096,276.6699,83.4093,-6.945e-05,-9.22e-06,0.0,0 STARLINK-5277,1 55269U 23010A   24214.06966373 -.00000922  00000-0 -69450-4 0  9999,2 55269  70.0000  81.0960 0003225 276.6699  83.4093 14.98330594 85340,6950.191,96.107,574.297,569.815,0.0
55269.0,STARLINK-5277,PAYLOAD,2024-08-01 20:53:54,14.98334792,0.0003073,69.999,79.076,268.824,91.2567,9.4395e-05,1.034e-05,0.0,0 STARLINK-5277,1 55269U 23010A   24214.87077437  .00001034  00000-0  94395-4 0  9991,2 55269  69.9990  79.0760 0003073 268.8240  91.2567 14.98334792 84870,6950.178,96.107,574.179,569.907,0.0
55269.0,STARLINK-5277,PAYLOAD,2024-08-01 22:30:02,14.98358102,0.0002912,69.9999,78.9083,266.108,93.9746,-0.00022251,-2.749e-05,0.0,0 STARLINK-5277,1 55269U 23010A   24214.93753053 -.00002749  00000-0 -22251-3 0  9990,2 55269  69.9999  78.9083 0002912 266.1080  93.9746 14.98358102 85475,6950.106,96.105,573.995,569.947,0.0
55269.0,STARLINK-5277,PAYLOAD,2024-08-02 00:06:10,14.98403201,0.0003211,69.9996,78.7397,264.1575,95.9218,-0.00092847,-0.00011175,0.0,0 STARLINK-5277,1 55269U 23010A   24215.00428322 -.00011175  00000-0 -92847-3 0  9998,2 55269  69.9996  78.7397 0003211 264.1575  95.9218 14.98403201 84890,6949.967,96.102,574.063,569.6,0.0
55269.0,STARLINK-5277,PAYLOAD,2024-08-02 08:06:50,14.98373583,0.0002884,70.0001,77.8992,267.1505,92.9324,-0.00071651,-8.641e-05,0.0,0 STARLINK-5277,1 55269U 23010A   24215.33808622 -.00008641  00000-0 -71651-3 0  9993,2 55269  70.0001  77.8992 0002884 267.1505  92.9324 14.98373583 84942,6950.058,96.104,573.928,569.919,0.0
55269.0,STARLINK-5277,PAYLOAD,2024-08-02 14:31:24,14.98323634,0.000282,70.0012,77.2279,272.9704,87.1132,0.00010448,1.154e-05,0.0,0 STARLINK-5277,1 55269U 23010A   24215.60514172  .00001154  00000-0  10448-3 0  9994,2 55269  70.0012  77.2279 0002820 272.9704  87.1132 14.98323634 85576,6950.213,96.107,574.038,570.118,0.0
55269.0,STARLINK-5277,PAYLOAD,2024-08-02 20:55:57,14.98319522,0.000266,70.0006,76.5529,267.2778,92.8077,1.5316e-05,9e-07,0.0,0 STARLINK-5277,1 55269U 23010A   24215.87218778  .00000090  00000-0  15316-4 0  9994,2 55269  70.0006  76.5529 0002660 267.2778  92.8077 14.98319522 85021,6950.225,96.108,573.939,570.242,0.0
55269.0,STARLINK-5277,PAYLOAD,2024-08-02 22:32:05,14.98318272,0.000294,69.9999,76.3844,270.9068,89.1754,2.4009e-05,1.93e-06,0.0,0 STARLINK-5277,1 55269U 23010A   24215.93894822  .00000193  00000-0  24009-4 0  9994,2 55269  69.9999  76.3844 0002940 270.9068  89.1754 14.98318272 85629,6950.229,96.108,574.138,570.051,0.0
55269.0,STARLINK-5277,PAYLOAD,2024-08-03 08:08:53,14.9832791,0.0002983,69.9994,75.373,270.8603,89.2215,-1.3734e-06,-1.09e-06,0.0,0 STARLINK-5277,1 55269U 23010A   24216.33950352 -.00000109  00000-0 -13734-5 0  9993,2 55269  69.9994  75.3730 0002983 270.8603  89.2215 14.98327910 85091,6950.199,96.107,574.138,569.991,0.0
55269.0,STARLINK-5277,PAYLOAD,2024-08-03 20:57:56,14.98339808,0.0003078,69.9992,74.0261,270.8354,89.2453,-1.2569e-05,-2.43e-06,0.0,0 STARLINK-5277,1 55269U 23010A   24216.87357546 -.00000243  00000-0 -12569-4 0  9991,2 55269  69.9992  74.0261 0003078 270.8354  89.2453 14.98339808 85175,6950.163,96.106,574.167,569.888,0.0
55269.0,STARLINK-5277,PAYLOAD,2024-08-03 22:34:04,14.98340153,0.0003076,69.9991,73.8578,271.0708,89.0098,-6.4963e-06,-1.71e-06,0.0,0 STARLINK-5277,1 55269U 23010A   24216.94033481 -.00000171  00000-0 -64963-5 0  9994,2 55269  69.9991  73.8578 0003076 271.0708  89.0098 14.98340153 85770,6950.161,96.106,574.164,569.889,0.0
55269.0,STARLINK-5277,PAYLOAD,2024-08-04 14:35:26,14.98322043,0.0003027,69.9992,72.1748,272.7447,87.3366,7.5409e-05,8.07e-06,0.0,0 STARLINK-5277,1 55269U 23010A   24217.60794367  .00000807  00000-0  75409-4 0  9995,2 55269  69.9992  72.1748 0003027 272.7447  87.3366 14.98322043 85874,6950.217,96.108,574.186,569.979,0.0
55269.0,STARLINK-5277,PAYLOAD,2024-08-04 20:59:58,14.98328513,0.0002967,69.9992,71.501,271.5347,88.5472,0.00011619,1.294e-05,0.0,0 STARLINK-5277,1 55269U 23010A   24217.87497961  .00001294  00000-0  11619-3 0  9997,2 55269  69.9992  71.5010 0002967 271.5347  88.5472 14.98328513 85326,6950.197,96.107,574.125,570.0,0.0
55269.0,STARLINK-5277,PAYLOAD,2024-08-04 22:36:06,14.98332009,0.0002952,69.9992,71.3328,271.6549,88.4272,0.0001532,1.735e-05,0.0,0 STARLINK-5277,1 55269U 23010A   24217.94173644  .00001735  00000-0  15320-3 0  9997,2 55269  69.9992  71.3328 0002952 271.6549  88.4272 14.98332009 85923,6950.187,96.107,574.103,570.0,0.0
55269.0,STARLINK-5277,PAYLOAD,2024-08-05 21:01:59,14.98329679,0.0002755,69.9997,68.9763,268.143,91.9413,2.7452e-05,2.35e-06,0.0,0 STARLINK-5277,1 55269U 23010A   24218.87638021  .00000235  00000-0  27452-4 0  9999,2 55269  69.9997  68.9763 0002755 268.1430  91.9413 14.98329679 85479,6950.194,96.107,573.974,570.144,0.0
55269.0,STARLINK-5277,PAYLOAD,2024-08-05 22:38:07,14.98332926,0.0002828,69.9995,68.8077,271.0644,89.0191,1.1953e-05,5e-07,0.0,0 STARLINK-5277,1 55269U 23010A   24218.94313835  .00000050  00000-0  11953-4 0  9994,2 55269  69.9995  68.8077 0002828 271.0644  89.0191 14.98332926 86072,6950.184,96.107,574.014,570.083,0.0
55269.0,STARLINK-5277,PAYLOAD,2024-08-06 14:39:27,14.98330638,0.000269,69.9999,67.1248,273.9267,86.1585,1.6694e-05,1.06e-06,0.0,0 STARLINK-5277,1 55269U 23010A   24219.61073964  .00000106  00000-0  16694-4 0  9994,2 55269  69.9999  67.1248 0002690 273.9267  86.1585 14.98330638 86171,6950.191,96.107,573.926,570.186,0.0
55269.0,STARLINK-5277,PAYLOAD,2024-08-06 21:04:00,14.98329131,0.0002744,69.9999,66.4514,272.4849,87.5996,-8.354e-06,-1.93e-06,0.0,0 STARLINK-5277,1 55269U 23010A   24219.87778092 -.00000193  00000-0 -83540-5 0  9999,2 55269  69.9999  66.4514 0002744 272.4849  87.5996 14.98329131 85625,6950.196,96.107,573.968,570.153,0.0
55269.0,STARLINK-5277,PAYLOAD,2024-08-07 13:05:20,14.98330796,0.0002791,69.9999,64.7677,268.8125,91.2714,2.5215e-05,2.08e-06,0.0,0 STARLINK-5277,1 55269U 23010A   24220.54537817  .00000208  00000-0  25215-4 0  9992,2 55269  69.9999  64.7677 0002791 268.8125  91.2714 14.98330796 86310,6950.19,96.107,573.995,570.116,0.0
